ONEWEB-0534             
1 55797U 23029B   26185.19917210  .00000141  00000+0  31373-3 0  9996
2 55797  87.9187 271.0788 0001986 102.1913 257.9443 13.20772662163391
ONEWEB-0556             
1 55798U 23029C   26185.66043950  .00000057  00000+0  10872-3 0  9997
2 55798  87.9184 270.9857 0001164  97.0406 263.0860 13.20769649163450
ONEWEB-0562             
1 55799U 23029D   26185.49547305  .00000118  00000+0  25860-3 0  9993
2 55799  87.9183 270.9997 0001684  75.6810 284.4510 13.20771882163432
ONEWEB-0563             
1 55800U 23029E   26185.18738604  .00000149  00000+0  33495-3 0  9993
2 55800  87.9185 271.0916 0001962 106.4707 253.6642 13.20773321163385
ONEWEB-0564             
1 55801U 23029F   26185.63520972  .00000043  00000+0  74116-4 0  9990
2 55801  87.9186 270.9758 0001905  88.8836 271.2515 13.20771893163457
ONEWEB-0638             
1 55802U 23029G   26185.67183421 -.00002325  00000+0 -63093-2 0  9996
2 55802  87.8965 286.2663 0002044  91.3296 268.8068 13.14481728161698
ONEWEB-0639             
1 55803U 23029H   26185.77303447  .00000012  00000+0 -14409-5 0  9990
2 55803  87.9183 301.4730 0002200 127.1364 232.9970 13.19725824161221
ONEWEB-0640             
1 55804U 23029J   26185.68131823 -.00000120  00000+0 -35744-3 0  9992
2 55804  87.8964 286.2552 0001303 108.1373 251.9899 13.14501808161716
ONEWEB-0641             
1 55805U 23029K   26185.76830184 -.00000019  00000+0 -79478-4 0  9998
2 55805  87.9189 301.4647 0001988 105.6238 254.5115 13.19726178161234
ONEWEB-0642             
1 55806U 23029L   26185.61194112  .00000039  00000+0  65821-4 0  9994
2 55806  87.9185 301.5065 0002348 121.3378 238.7985 13.19726004161201
ONEWEB-0643             
1 55807U 23029M   26185.72731372  .00000249  00000+0  63617-3 0  9995
2 55807  87.8960 286.2333 0002467 114.0632 246.0756 13.14502126161696
ONEWEB-0644             
1 55808U 23029N   26185.75883520  .00000046  00000+0  82575-4 0  9992
2 55808  87.9185 301.4783 0002131 109.8359 250.3004 13.19725417161220
ONEWEB-0645             
1 55809U 23029P   26185.55349687 -.00000004  00000+0 -42045-4 0  9996
2 55809  87.9183 301.5161 0001724 113.9691 246.1623 13.19724898161190
ONEWEB-0646             
1 55810U 23029Q   26185.72250364  .00000028  00000+0  36788-4 0  9991
2 55810  87.9183 301.4830 0002109 108.0286 252.1076 13.19726187161201
ONEWEB-0648             
1 55811U 23029R   26185.69559546 -.00000188  00000+0 -54284-3 0  9991
2 55811  87.8975 286.2151 0001947 127.9879 232.1426 13.14503059161699
ONEWEB-0649             
1 55812U 23029S   26185.59613426  .00000063  00000+0  12467-3 0  9996
2 55812  87.9181 301.5057 0001854 108.4507 251.6827 13.19726233161221
ONEWEB-0650             
1 55813U 23029T   26185.74302983  .00000055  00000+0  10606-3 0  9991
2 55813  87.9183 301.4792 0002208 117.1652 242.9707 13.19724993161211
ONEWEB-0652             
1 55814U 23029U   26185.67656314 -.00000001  00000+0 -38473-4 0  9990
2 55814  87.8972 286.2253 0002023  95.5006 264.6355 13.14502372161665
ONEWEB-0653             
1 55815U 23029V   26185.50846357  .00000236  00000+0  60128-3 0  9990
2 55815  87.8971 286.2572 0001913  99.3052 260.8294 13.14501585161675
ONEWEB-0654             
1 55816U 23029W   26185.73205939  .00000290  00000+0  74733-3 0  9998
2 55816  87.8970 286.2087 0001951  89.9587 270.1767 13.14501737161720
ONEWEB-0656             
1 55817U 23029X   26185.70420484 -.00000185  00000+0 -48585-3 0  9991
2 55817  87.9193 270.9397 0002063  87.0542 273.0828 13.20770405163468
ONEWEB-0657             
1 55818U 23029Y   26185.73830343  .00000054  00000+0  10255-3 0  9990
2 55818  87.9185 301.4788 0002555  91.7421 268.4005 13.19725765161222
ONEWEB-0658             
1 55819U 23029Z   26185.73356578  .00000052  00000+0  97655-4 0  9992
2 55819  87.9192 301.4566 0002102 111.1997 248.9360 13.19726151161236
ONEWEB-0660             
1 55820U 23029AA  26185.70985573 -.00000022  00000+0 -94166-4 0  9997
2 55820  87.8980 286.2081 0001731 107.6154 252.5165 13.14502041161707
ONEWEB-0661             
1 55821U 23029AB  26185.66863928  .00000140  00000+0  34427-3 0  9994
2 55821  87.8965 286.2580 0001678 103.3379 256.7938 13.14502241161680
ONEWEB-0662             
1 55822U 23029AC  26185.70352335 -.00000124  00000+0 -36974-3 0  9998
2 55822  87.8961 286.2570 0001760 107.7105 252.4217 13.14502080161733
ONEWEB-0663             
1 55823U 23029AD  26185.66086948  .00000086  00000+0  17872-3 0  9999
2 55823  87.9196 271.0197 0001912 111.9321 248.2016 13.20870790163452
ONEWEB-0664             
1 55824U 23029AE  26185.69076481  .00000023  00000+0  25151-4 0  9995
2 55824  87.9182 270.9929 0001568  95.2267 264.9045 13.20771823163453
ONEWEB-0665             
1 55825U 23029AF  26185.66546593  .00000209  00000+0  52992-3 0  9997
2 55825  87.8964 286.2391 0001866 110.9546 249.1784 13.14501632161703
ONEWEB-0666             
1 55826U 23029AG  26185.68401923 -.00000028  00000+0 -10189-3 0  9990
2 55826  87.9185 270.9843 0002646  91.4756 268.6680 13.20772826163463
