OBJECT_NAME,OBJECT_ID,EPOCH,MEAN_MOTION,ECCENTRICITY,INCLINATION,RA_OF_ASC_NODE,ARG_OF_PERICENTER,MEAN_ANOMALY,EPHEMERIS_TYPE,CLASSIFICATION_TYPE,NORAD_CAT_ID,ELEMENT_SET_NO,REV_AT_EPOCH,BSTAR,MEAN_MOTION_DOT,MEAN_MOTION_DDOT
ONEWEB-0534,2023-029B,2026-07-04T04:46:48.469440,13.20772662,.00019865,87.9187,271.0788,102.1913,257.9443,0,U,55797,999,16339,.3137271E-3,.141E-5,0
ONEWEB-0556,2023-029C,2026-07-04T15:51:01.972800,13.20769649,.0001164,87.9184,270.9857,97.0406,263.0860,0,U,55798,999,16345,.10872355E-3,.57E-6,0
ONEWEB-0562,2023-029D,2026-07-04T11:53:28.871520,13.20771882,.00016842,87.9183,270.9997,75.6810,284.4510,0,U,55799,999,16343,.25860408E-3,.118E-5,0
ONEWEB-0563,2023-029E,2026-07-04T04:29:50.153856,13.20773321,.00019625,87.9185,271.0916,106.4707,253.6642,0,U,55800,999,16338,.33495188E-3,.149E-5,0
ONEWEB-0564,2023-029F,2026-07-04T15:14:42.119808,13.20771893,.00019057,87.9186,270.9758,88.8836,271.2515,0,U,55801,999,16345,.74115547E-4,.43E-6,0
ONEWEB-0638,2023-029G,2026-07-04T16:07:26.475744,13.14481728,.00020448,87.8965,286.2663,91.3296,268.8068,0,U,55802,999,16169,-.63092945E-2,-.2325E-4,0
ONEWEB-0639,2023-029H,2026-07-04T18:33:10.178208,13.19725824,.00022001,87.9183,301.4730,127.1364,232.9970,0,U,55803,999,16122,-.1440919E-5,.12E-6,0
ONEWEB-0640,2023-029J,2026-07-04T16:21:05.895072,13.14501808,.00013033,87.8964,286.2552,108.1373,251.9899,0,U,55804,999,16171,-.35744026E-3,-.12E-5,0
ONEWEB-0641,2023-029K,2026-07-04T18:26:21.278976,13.19726178,.00019889,87.9189,301.4647,105.6238,254.5115,0,U,55805,999,16123,-.79477515E-4,-.19E-6,0
ONEWEB-0642,2023-029L,2026-07-04T14:41:11.712768,13.19726004,.00023482,87.9185,301.5065,121.3378,238.7985,0,U,55806,999,16120,.65820786E-4,.39E-6,0
ONEWEB-0643,2023-029M,2026-07-04T17:27:19.905408,13.14502126,.00024671,87.8960,286.2333,114.0632,246.0756,0,U,55807,999,16169,.63616953E-3,.249E-5,0
ONEWEB-0644,2023-029N,2026-07-04T18:12:43.361280,13.19725417,.00021314,87.9185,301.4783,109.8359,250.3004,0,U,55808,999,16122,.82574739E-4,.46E-6,0
ONEWEB-0645,2023-029P,2026-07-04T13:17:02.129568,13.19724898,.00017246,87.9183,301.5161,113.9691,246.1623,0,U,55809,999,16119,-.42045074E-4,-.4E-7,0
ONEWEB-0646,2023-029Q,2026-07-04T17:20:24.314496,13.19726187,.00021091,87.9183,301.4830,108.0286,252.1076,0,U,55810,999,16120,.36787604E-4,.28E-6,0
ONEWEB-0648,2023-029R,2026-07-04T16:41:39.447744,13.14503059,.00019478,87.8975,286.2151,127.9879,232.1426,0,U,55811,999,16169,-.54283678E-3,-.188E-5,0
ONEWEB-0649,2023-029S,2026-07-04T14:18:26.000064,13.19726233,.00018548,87.9181,301.5057,108.4507,251.6827,0,U,55812,999,16122,.12466751E-3,.63E-6,0
ONEWEB-0650,2023-029T,2026-07-04T17:49:57.777312,13.19724993,.00022086,87.9183,301.4792,117.1652,242.9707,0,U,55813,999,16121,.10605945E-3,.55E-6,0
ONEWEB-0652,2023-029U,2026-07-04T16:14:15.055296,13.14502372,.00020239,87.8972,286.2253,95.5006,264.6355,0,U,55814,999,16166,-.3847308E-4,-.1E-7,0
ONEWEB-0653,2023-029V,2026-07-04T12:12:11.252448,13.14501585,.0001913,87.8971,286.2572,99.3052,260.8294,0,U,55815,999,16167,.60128004E-3,.236E-5,0
ONEWEB-0654,2023-029W,2026-07-04T17:34:09.931296,13.14501737,.00019517,87.8970,286.2087,89.9587,270.1767,0,U,55816,999,16172,.74733202E-3,.29E-5,0
ONEWEB-0656,2023-029X,2026-07-04T16:54:03.298176,13.20770405,.00020637,87.9193,270.9397,87.0542,273.0828,0,U,55817,999,16346,-.48585357E-3,-.185E-5,0
ONEWEB-0657,2023-029Y,2026-07-04T17:43:09.416352,13.19725765,.00025559,87.9185,301.4788,91.7421,268.4005,0,U,55818,999,16122,.10255121E-3,.54E-6,0
ONEWEB-0658,2023-029Z,2026-07-04T17:36:20.083392,13.19726151,.0002102,87.9192,301.4566,111.1997,248.9360,0,U,55819,999,16123,.97655233E-4,.52E-6,0
ONEWEB-0660,2023-029AA,2026-07-04T17:02:11.535072,13.14502041,.0001731,87.8980,286.2081,107.6154,252.5165,0,U,55820,999,16170,-.94166101E-4,-.22E-6,0
ONEWEB-0661,2023-029AB,2026-07-04T16:02:50.433792,13.14502241,.00016785,87.8965,286.2580,103.3379,256.7938,0,U,55821,999,16168,.34426558E-3,.14E-5,0
ONEWEB-0662,2023-029AC,2026-07-04T16:53:04.417440,13.14502080,.00017608,87.8961,286.2570,107.7105,252.4217,0,U,55822,999,16173,-.36973809E-3,-.124E-5,0
ONEWEB-0663,2023-029AD,2026-07-04T15:51:39.123072,13.20870790,.00019124,87.9196,271.0197,111.9321,248.2016,0,U,55823,999,16345,.17872217E-3,.86E-6,0
ONEWEB-0664,2023-029AE,2026-07-04T16:34:42.079584,13.20771823,.00015683,87.9182,270.9929,95.2267,264.9045,0,U,55824,999,16345,.25150898E-4,.23E-6,0
ONEWEB-0665,2023-029AF,2026-07-04T15:58:16.256352,13.14501632,.00018663,87.8964,286.2391,110.9546,249.1784,0,U,55825,999,16170,.52991999E-3,.209E-5,0
ONEWEB-0666,2023-029AG,2026-07-04T16:24:59.261472,13.20772826,.00026467,87.9185,270.9843,91.4756,268.6680,0,U,55826,999,16346,-.10189195E-3,-.28E-6,0
